[{"OBJECT_NAME":"STARLINK-3259","OBJECT_ID":"2021-125AN","EPOCH":"2026-03-09T16:47:58.307424","MEAN_MOTION":15.08836946,"ECCENTRICITY":0.00012398,"INCLINATION":53.2168,"RA_OF_ASC_NODE":239.0767,"ARG_OF_PERICENTER":85.26,"MEAN_ANOMALY":274.8534,"EPHEMERIS_TYPE":0,"CLASSIFICATION_TYPE":"U","NORAD_CAT_ID":50192,"ELEMENT_SET_NO":999,"REV_AT_EPOCH":23673,"BSTAR":0.00017246162,"MEAN_MOTION_DOT":2.458e-5,"MEAN_MOTION_DDOT":0},{"OBJECT_NAME":"UNISAT-5","OBJECT_ID":"2013-066F","EPOCH":"2026-03-09T22:02:55.134816","MEAN_MOTION":15.04155626,"ECCENTRICITY":0.00317175,"INCLINATION":97.6976,"RA_OF_ASC_NODE":39.5171,"ARG_OF_PERICENTER":68.1555,"MEAN_ANOMALY":292.3039,"EPHEMERIS_TYPE":0,"CLASSIFICATION_TYPE":"U","NORAD_CAT_ID":39421,"ELEMENT_SET_NO":999,"REV_AT_EPOCH":66774,"BSTAR":0.0004680489,"MEAN_MOTION_DOT":6.504e-5,"MEAN_MOTION_DDOT":0}]
